OBJECT_NAME,OBJECT_ID,EPOCH,MEAN_MOTION,ECCENTRICITY,INCLINATION,RA_OF_ASC_NODE,ARG_OF_PERICENTER,MEAN_ANOMALY,EPHEMERIS_TYPE,CLASSIFICATION_TYPE,NORAD_CAT_ID,ELEMENT_SET_NO,REV_AT_EPOCH,BSTAR,MEAN_MOTION_DOT,MEAN_MOTION_DDOT
ONEWEB-0497,2022-138D,2026-06-15T02:28:47.432064,13.19724651,.0001784,87.9173,305.3778,99.7896,260.3438,0,U,54116,999,17653,-.69302E-5,.1E-6,0
ONEWEB-0499,2022-138E,2026-06-15T02:04:54.571008,13.19726782,.000161,87.9166,305.3904,96.1300,264.0016,0,U,54117,999,17654,-.61152E-4,-.12E-6,0
ONEWEB-0500,2022-138F,2026-06-15T02:08:18.844800,13.19724552,.0001917,87.9176,305.3840,100.2257,259.9092,0,U,54118,999,17655,-.81597E-4,-.2E-6,0
ONEWEB-0501,2022-138G,2026-06-15T02:51:31.612032,13.19723322,.0001428,87.9175,305.3778,101.5842,258.5451,0,U,54119,999,17653,-.46645E-4,-.6E-7,0
ONEWEB-0502,2022-138H,2026-06-15T02:31:03.129312,13.19724113,.0001623,87.9174,305.3695,94.9945,265.1373,0,U,54120,999,17655,.43775E-4,.3E-6,0
ONEWEB-0503,2022-138J,2026-06-15T02:15:08.544960,13.19724685,.0001927,87.9178,305.3773,90.3125,269.8228,0,U,54121,999,17654,-.62766E-4,-.12E-6,0
ONEWEB-0504,2022-138K,2026-06-15T01:56:57.039936,13.19725738,.0001643,87.9175,305.3848,94.1562,265.9758,0,U,54122,999,17655,-.64627E-4,-.13E-6,0
ONEWEB-0505,2022-138L,2026-06-15T01:52:24.364128,13.19726032,.0001394,87.9173,305.3866,96.9603,263.1688,0,U,54123,999,17653,-.22649E-3,-.78E-6,0
ONEWEB-0506,2022-138M,2026-06-15T03:05:10.079232,13.19723318,.0001527,87.9179,305.3735,99.6234,260.5071,0,U,54124,999,17653,-.1024E-3,-.28E-6,0
ONEWEB-0507,2022-138N,2026-06-14T22:07:13.567584,13.19725039,.0001655,87.9166,305.4271,100.6403,259.4916,0,U,54125,999,17655,-.11693E-3,-.34E-6,0
ONEWEB-0508,2022-138P,2026-06-15T03:30:11.490048,13.19724225,.0001492,87.9168,305.3819,107.6886,252.4410,0,U,54126,999,17656,.36148E-5,.14E-6,0
ONEWEB-0509,2022-138Q,2026-06-14T21:26:16.101888,13.19719549,.000169,87.9177,305.4215,99.6122,260.5201,0,U,54127,999,17650,-.17232E-3,-.56E-6,0
ONEWEB-0510,2022-138R,2026-06-15T00:15:35.870976,13.20772589,.0002427,87.9193,274.8694,96.1966,263.9444,0,U,54128,999,17899,-.77643E-4,-.19E-6,0
ONEWEB-0511,2022-138S,2026-06-14T21:21:44.213184,13.19725891,.0001767,87.9174,305.4251,89.1586,270.9749,0,U,54129,999,17653,-.26516E-4,.2E-7,0
ONEWEB-0512,2022-138T,2026-06-15T02:37:52.883040,13.19724955,.0001525,87.9166,305.3866,94.2779,265.8528,0,U,54130,999,17653,.15686E-3,.76E-6,0
ONEWEB-0513,2022-138U,2026-06-15T02:47:12.004224,13.20268490,.0001203,87.9174,305.3295,72.2902,287.8363,0,U,54131,999,17644,.12824E-3,.65E-6,0
ONEWEB-0514,2022-138V,2026-06-15T03:00:37.634112,13.19724722,.0002032,87.9183,305.3770,94.3484,265.7881,0,U,54132,999,17655,.44166E-3,.19E-5,0
ONEWEB-0515,2022-138W,2026-06-15T05:23:27.701952,13.20770238,.0002688,87.9198,274.8212,112.2168,247.9251,0,U,54133,999,17904,.16943E-3,.82E-6,0
ONEWEB-0516,2022-138X,2026-06-15T02:24:13.716000,13.19725368,.0001803,87.9164,305.3884,102.6545,257.4789,0,U,54134,999,17655,-.2564E-4,.3E-7,0
ONEWEB-0517,2022-138Y,2026-06-15T01:54:39.924000,13.19724655,.000194,87.9174,305.3846,88.9654,271.1700,0,U,54135,999,17655,-.16958E-3,-.55E-6,0
ONEWEB-0518,2022-138Z,2026-06-15T02:21:59.199840,13.19727807,.0001822,87.9166,305.3907,104.5694,255.5640,0,U,54136,999,17655,-.86961E-4,-.22E-6,0
ONEWEB-0519,2022-138AA,2026-06-15T02:58:21.999072,13.19726126,.000192,87.9179,305.3767,92.5469,267.5884,0,U,54137,999,17656,.41468E-5,.15E-6,0
ONEWEB-0520,2022-138AB,2026-06-15T01:59:13.441344,13.19725332,.0001579,87.9175,305.3849,100.5900,259.5411,0,U,54138,999,17654,-.65221E-4,-.13E-6,0
ONEWEB-0521,2022-138AC,2026-06-15T02:46:58.945728,13.19724670,.0001982,87.9177,305.3670,92.3795,267.7565,0,U,54139,999,17649,-.18013E-3,-.59E-6,0
ONEWEB-0522,2022-138AD,2026-06-15T02:17:25.098432,13.19724434,.0001721,87.9178,305.3736,97.8787,262.2541,0,U,54140,999,17653,-.72206E-4,-.16E-6,0
ONEWEB-0523,2022-138AE,2026-06-15T01:25:53.414400,13.20769569,.0002798,87.9195,274.8642,99.6951,260.4498,0,U,54141,999,17902,-.4752E-3,-.18E-5,0
ONEWEB-0524,2022-138AF,2026-06-15T01:11:20.889312,13.20770671,.0002568,87.9194,274.8633,117.5732,242.5662,0,U,54142,999,17902,-.42149E-4,-.4E-7,0
ONEWEB-0525,2022-138AG,2026-06-15T02:44:42.101088,13.19725148,.000154,87.9175,305.3775,105.7510,254.3792,0,U,54143,999,17655,-.10727E-3,-.3E-6,0
ONEWEB-0526,2022-138AH,2026-06-14T22:04:56.381664,13.19726088,.0001763,87.9175,305.4166,102.3435,257.7895,0,U,54144,999,17650,-.26694E-3,-.94E-6,0
ONEWEB-0529,2022-138AJ,2026-06-15T03:37:01.059744,13.19724009,.0001645,87.9167,305.3799,101.9979,258.1338,0,U,54145,999,17655,-.20327E-3,-.68E-6,0
