ONEWEB-0497             
1 54116U 22138D   26166.10332676  .00000010  00000+0 -69302-5 0  9998
2 54116  87.9173 305.3778 0001784  99.7896 260.3438 13.19724651176532
ONEWEB-0499             
1 54117U 22138E   26166.08674272 -.00000012  00000+0 -61152-4 0  9994
2 54117  87.9166 305.3904 0001610  96.1300 264.0016 13.19726782176546
ONEWEB-0500             
1 54118U 22138F   26166.08910700 -.00000020  00000+0 -81597-4 0  9998
2 54118  87.9176 305.3840 0001917 100.2257 259.9092 13.19724552176556
ONEWEB-0501             
1 54119U 22138G   26166.11911588 -.00000006  00000+0 -46645-4 0  9997
2 54119  87.9175 305.3778 0001428 101.5842 258.5451 13.19723322176533
ONEWEB-0502             
1 54120U 22138H   26166.10489733  .00000030  00000+0  43775-4 0  9996
2 54120  87.9174 305.3695 0001623  94.9945 265.1373 13.19724113176556
ONEWEB-0503             
1 54121U 22138J   26166.09384890 -.00000012  00000+0 -62766-4 0  9996
2 54121  87.9178 305.3773 0001927  90.3125 269.8228 13.19724685176548
ONEWEB-0504             
1 54122U 22138K   26166.08121574 -.00000013  00000+0 -64627-4 0  9993
2 54122  87.9175 305.3848 0001643  94.1562 265.9758 13.19725738176557
ONEWEB-0505             
1 54123U 22138L   26166.07805977 -.00000078  00000+0 -22649-3 0  9997
2 54123  87.9173 305.3866 0001394  96.9603 263.1688 13.19726032176533
ONEWEB-0506             
1 54124U 22138M   26166.12858888 -.00000028  00000+0 -10240-3 0  9992
2 54124  87.9179 305.3735 0001527  99.6234 260.5071 13.19723318176534
ONEWEB-0507             
1 54125U 22138N   26165.92168481 -.00000034  00000+0 -11693-3 0  9993
2 54125  87.9166 305.4271 0001655 100.6403 259.4916 13.19725039176559
ONEWEB-0508             
1 54126U 22138P   26166.14596632  .00000014  00000+0  36148-5 0  9992
2 54126  87.9168 305.3819 0001492 107.6886 252.4410 13.19724225176569
ONEWEB-0509             
1 54127U 22138Q   26165.89324192 -.00000056  00000+0 -17232-3 0  9993
2 54127  87.9177 305.4215 0001690  99.6122 260.5201 13.19719549176509
ONEWEB-0510             
1 54128U 22138R   26166.01083184 -.00000019  00000+0 -77643-4 0  9994
2 54128  87.9193 274.8694 0002427  96.1966 263.9444 13.20772589178991
ONEWEB-0511             
1 54129U 22138S   26165.89009506  .00000002  00000+0 -26516-4 0  9990
2 54129  87.9174 305.4251 0001767  89.1586 270.9749 13.19725891176533
ONEWEB-0512             
1 54130U 22138T   26166.10963985  .00000076  00000+0  15686-3 0  9992
2 54130  87.9166 305.3866 0001525  94.2779 265.8528 13.19724955176538
ONEWEB-0513             
1 54131U 22138U   26166.11611116  .00000065  00000+0  12824-3 0  9999
2 54131  87.9174 305.3295 0001203  72.2902 287.8363 13.20268490176441
ONEWEB-0514             
1 54132U 22138V   26166.12543558  .00000190  00000+0  44166-3 0  9998
2 54132  87.9183 305.3770 0002032  94.3484 265.7881 13.19724722176556
ONEWEB-0515             
1 54133U 22138W   26166.22462618  .00000082  00000+0  16943-3 0  9999
2 54133  87.9198 274.8212 0002688 112.2168 247.9251 13.20770238179045
ONEWEB-0516             
1 54134U 22138X   26166.10015875  .00000003  00000+0 -25640-4 0  9995
2 54134  87.9164 305.3884 0001803 102.6545 257.4789 13.19725368176551
ONEWEB-0517             
1 54135U 22138Y   26166.07962875 -.00000055  00000+0 -16958-3 0  9992
2 54135  87.9174 305.3846 0001940  88.9654 271.1700 13.19724655176554
ONEWEB-0518             
1 54136U 22138Z   26166.09860185 -.00000022  00000+0 -86961-4 0  9992
2 54136  87.9166 305.3907 0001822 104.5694 255.5640 13.19727807176553
ONEWEB-0519             
1 54137U 22138AA  26166.12386573  .00000015  00000+0  41468-5 0  9995
2 54137  87.9179 305.3767 0001920  92.5469 267.5884 13.19726126176564
ONEWEB-0520             
1 54138U 22138AB  26166.08279446 -.00000013  00000+0 -65221-4 0  9993
2 54138  87.9175 305.3849 0001579 100.5900 259.5411 13.19725332176545
ONEWEB-0521             
1 54139U 22138AC  26166.11596002 -.00000059  00000+0 -18013-3 0  9994
2 54139  87.9177 305.3670 0001982  92.3795 267.7565 13.19724670176497
ONEWEB-0522             
1 54140U 22138AD  26166.09542938 -.00000016  00000+0 -72206-4 0  9990
2 54140  87.9178 305.3736 0001721  97.8787 262.2541 13.19724434176532
ONEWEB-0523             
1 54141U 22138AE  26166.05964600 -.00000180  00000+0 -47520-3 0  9993
2 54141  87.9195 274.8642 0002798  99.6951 260.4498 13.20769569179024
ONEWEB-0524             
1 54142U 22138AF  26166.04954733 -.00000004  00000+0 -42149-4 0  9997
2 54142  87.9194 274.8633 0002568 117.5732 242.5662 13.20770671179026
ONEWEB-0525             
1 54143U 22138AG  26166.11437617 -.00000030  00000+0 -10727-3 0  9998
2 54143  87.9175 305.3775 0001540 105.7510 254.3792 13.19725148176552
ONEWEB-0526             
1 54144U 22138AH  26165.92009701 -.00000094  00000+0 -26694-3 0  9996
2 54144  87.9175 305.4166 0001763 102.3435 257.7895 13.19726088176504
ONEWEB-0529             
1 54145U 22138AJ  26166.15070671 -.00000068  00000+0 -20327-3 0  9995
2 54145  87.9167 305.3799 0001645 101.9979 258.1338 13.19724009176557
